[{"OBJECT_NAME":"STARLINK-1531","OBJECT_ID":"2020-070AS","EPOCH":"2026-03-10T00:00:02.999808","MEAN_MOTION":15.6350082,"ECCENTRICITY":0.00074825,"INCLINATION":53.0537,"RA_OF_ASC_NODE":138.0373,"ARG_OF_PERICENTER":262.1448,"MEAN_ANOMALY":167.5209,"EPHEMERIS_TYPE":0,"CLASSIFICATION_TYPE":"U","NORAD_CAT_ID":46572,"ELEMENT_SET_NO":999,"REV_AT_EPOCH":583,"BSTAR":0.0021715659,"MEAN_MOTION_DOT":0.00209774,"MEAN_MOTION_DDOT":0},{"OBJECT_NAME":"STARLINK-1931","OBJECT_ID":"2020-074BD","EPOCH":"2026-03-09T21:13:00.539328","MEAN_MOTION":15.65028532,"ECCENTRICITY":0.00014438,"INCLINATION":53.0448,"RA_OF_ASC_NODE":282.2511,"ARG_OF_PERICENTER":17.7174,"MEAN_ANOMALY":342.3891,"EPHEMERIS_TYPE":0,"CLASSIFICATION_TYPE":"U","NORAD_CAT_ID":46790,"ELEMENT_SET_NO":999,"REV_AT_EPOCH":29724,"BSTAR":0.0009294565,"MEAN_MOTION_DOT":0.00093618,"MEAN_MOTION_DDOT":0}]
